ONEWEB-0634             
1 56075U 23043AF  24238.81918714 -.00000727  00000+0 -19645-2 0  9997
2 56075  87.9062  30.6218 0001910 102.2058 257.9286 13.15545025 70485
ONEWEB-0635             
1 56076U 23043AG  24238.81442649  .00000043  00000+0  80049-4 0  9994
2 56076  87.9057  30.6759 0001542  81.3002 278.8302 13.15547940 70510
ONEWEB-0636             
1 56077U 23043AH  24238.42621351  .00000187  00000+0  46189-3 0  9996
2 56077  87.9057  30.7231 0001576  82.3785 277.7524 13.15549390 69538
ONEWEB-0637             
1 56078U 23043AJ  24238.80016110  .00000106  00000+0  24802-3 0  9999
2 56078  87.9058  30.6261 0001658  81.3261 278.8057 13.15548506 70512
ONEWEB-0647             
1 56079U 23043AK  24238.87144884  .00000136  00000+0  32849-3 0  9990
2 56079  87.9056  30.6287 0001429  91.3813 268.7481 13.15551143 69607
ONEWEB-0651             
1 56080U 23043AL  24238.86670320  .00000106  00000+0  24697-3 0  9999
2 56080  87.9059  30.6085 0001740  81.8286 278.3042 13.15550128 69604
ONEWEB-0718             
1 56081U 23043AM  24238.40561826  .00000087  00000+0  19636-3 0  9995
2 56081  87.9057  30.6860 0002216 103.3466 256.7912 13.15548247 69552
ONEWEB-0561             
1 56710U 23068A   24238.44704199  .00000036  00000+0  56472-4 0  9991
2 56710  87.9211  45.9113 0001433  69.0289 291.0998 13.20773255 62288
